OBJECT_NAME,OBJECT_ID,EPOCH,MEAN_MOTION,ECCENTRICITY,INCLINATION,RA_OF_ASC_NODE,ARG_OF_PERICENTER,MEAN_ANOMALY,EPHEMERIS_TYPE,CLASSIFICATION_TYPE,NORAD_CAT_ID,ELEMENT_SET_NO,REV_AT_EPOCH,BSTAR,MEAN_MOTION_DOT,MEAN_MOTION_DDOT
GSAT-16,2014-078A,2026-06-14T20:12:43.252128,1.00271096,.0007542,0.0838,90.4873,357.6328,173.2851,0,U,40332,999,4208,0,.9E-6,0
DIRECTV 14,2014-078B,2026-06-14T14:20:46.849344,1.00269975,.0000378,0.0123,18.9709,251.3664,108.5087,0,U,40333,999,4201,0,-.118E-5,0
YAMAL 401,2014-082A,2026-06-14T10:06:48.319776,1.00272921,.00002103,0.0166,275.2640,306.1490,282.9753,0,U,40345,999,4189,0,-.221E-5,0
ASTRA 2G,2014-089A,2026-06-14T18:42:02.429856,1.00272450,.0004489,0.0462,348.3369,80.6440,142.8037,0,U,40364,999,4194,0,.156E-5,0
FENGYUN 2G,2014-090A,2026-06-14T17:11:08.548224,1.00273289,.0004043,5.6311,72.8450,154.3346,33.2905,0,U,40367,999,4197,0,-.301E-5,0
MUOS-3,2015-002A,2026-06-14T19:52:33.730752,1.00271649,.005182,4.5164,43.5147,178.1419,324.1739,0,U,40374,999,4156,0,-.126E-5,0
INMARSAT 5-F2,2015-005A,2026-06-14T19:41:23.326368,1.00270132,.0000675,0.0170,354.9122,298.4597,210.0924,0,U,40384,999,4097,0,-.28E-5,0
ABS-3A,2015-010A,2026-06-14T14:48:14.217408,1.00272172,.0002129,0.0373,52.4733,342.4445,87.0276,0,U,40424,999,4135,0,0,0
EUTELSAT 115 WEST B,2015-010B,2026-06-14T15:58:56.013312,1.00266575,.0000364,0.0089,152.7893,247.4888,347.5137,0,U,40425,999,4136,0,-.18E-6,0
EXPRESS-AM7,2015-012A,2026-06-14T21:36:41.215392,1.00269568,.0002827,0.0258,10.8817,81.1059,175.3635,0,U,40505,999,4098,0,0,0
BEIDOU-3S IGSO-1S,2015-019A,2026-06-14T20:12:21.455136,1.00250661,.0039134,49.1999,295.4904,191.2000,171.1730,0,U,40549,999,4105,0,-.179E-5,0
THOR 7,2015-022A,2026-06-14T19:21:38.675232,1.00271749,.0002362,0.0428,113.4439,331.1719,108.2426,0,U,40613,999,4079,0,-.2E-7,0
TURKMENALEM52E/MONACOSAT,2015-023A,2026-06-14T20:11:50.834976,1.00269901,.0002639,0.0311,69.9563,7.6475,180.5048,0,U,40617,999,4082,0,.11E-5,0
DIRECTV 15,2015-026A,2026-06-14T16:02:25.676736,1.00269725,.0000285,0.0165,18.4213,276.0263,106.2537,0,U,40663,999,4043,0,-.96E-6,0
SKY MEXICO-1,2015-026B,2026-06-14T12:43:57.385920,1.00270798,.0001956,0.0172,352.9897,112.4922,269.5400,0,U,40664,999,4042,0,-.227E-5,0
METEOSAT-11 (MSG-4),2015-034A,2026-06-14T19:59:44.496960,1.00279627,.0001766,3.1957,71.1241,9.8531,131.6818,0,U,40732,999,719,0,.68E-6,0
STAR ONE C4,2015-034B,2026-06-14T14:29:01.059072,1.00270342,.0001985,0.0341,36.7487,36.7788,336.6357,0,U,40733,999,3998,0,-.258E-5,0
WGS F7 (USA 263),2015-036A,2026-06-14T15:38:57.926112,1.00271376,.0000215,0.0025,357.9631,300.5667,14.1540,0,U,40746,999,3984,0,.24E-6,0
INTELSAT 34 (IS-34),2015-039A,2026-06-14T11:07:54.912864,1.00273179,.0000491,0.0105,335.3821,359.9880,38.8912,0,U,40874,999,3960,0,-.278E-5,0
EUTELSAT 8 WEST B,2015-039B,2026-06-14T19:54:48.514752,1.00271778,.000392,0.0655,9.7859,70.4725,113.5704,0,U,40875,999,3963,0,-.6E-6,0
GSAT-6,2015-041A,2026-06-14T20:41:17.645856,1.00272460,.0003331,1.9136,82.6246,355.5333,217.8510,0,U,40880,999,3957,0,-.156E-5,0
INMARSAT 5-F3,2015-042A,2026-06-14T17:22:56.947008,1.00271253,.0000022,0.0179,7.7031,157.6263,178.0619,0,U,40882,999,3954,0,.57E-6,0
MUOS-4,2015-044A,2026-06-14T18:07:10.715232,1.00270690,.0057808,4.3253,42.2298,2.0999,205.4999,0,U,40887,999,3953,0,-.9E-6,0
TJS-1,2015-046A,2026-06-14T18:58:34.929984,1.00271023,.0005461,0.3173,84.9293,358.3176,259.5462,0,U,40892,999,3954,0,-.15E-5,0
EXPRESS-AM8,2015-048A,2026-06-14T19:53:03.683904,1.00270626,.0000484,0.0123,300.6756,13.5154,233.1979,0,U,40895,999,3932,0,-.106E-5,0
BEIDOU-3S IGSO-2S,2015-053A,2026-06-14T19:46:42.792096,1.00259392,.0065717,49.2253,258.8113,192.1261,204.1557,0,U,40938,999,3933,0,-.131E-5,0
SKY MUSTER 1 (NBN1A),2015-054A,2026-06-14T20:37:00.362208,1.00270852,.0001638,0.0252,339.9121,107.6151,265.1164,0,U,40940,999,3923,0,0,0
ARSAT 2,2015-054B,2026-06-14T12:43:19.947072,1.00271283,.0001946,0.0292,50.0457,17.4864,305.1302,0,U,40941,999,3927,0,-.218E-5,0
MORELOS 3,2015-056A,2026-06-14T14:16:47.231040,1.00272722,.0001209,3.1847,15.0060,3.3159,345.6687,0,U,40946,999,3925,0,-.39E-6,0
APSTAR-9,2015-059A,2026-06-14T20:37:30.313632,1.00272283,.0002231,0.0284,38.3977,151.0353,165.1055,0,U,40982,999,3909,0,-.26E-5,0
TURKSAT 4B,2015-060A,2026-06-14T20:11:20.884416,1.00270715,.0002157,0.0330,72.5314,354.8471,188.5672,0,U,40984,999,3907,0,.121E-5,0
ZHONGXING-2C,2015-063A,2026-06-14T20:26:31.366752,1.00272011,.0007559,0.2664,90.0288,98.7871,124.4166,0,U,41021,999,3895,0,-.318E-5,0
