GSAT-16                 
1 40332U 14078A   26165.84216727  .00000090  00000+0  00000+0 0  9996
2 40332   0.0838  90.4873 0007542 357.6328 173.2851  1.00271096 42083
DIRECTV 14              
1 40333U 14078B   26165.59776446 -.00000118  00000+0  00000+0 0  9990
2 40333   0.0123  18.9709 0000378 251.3664 108.5087  1.00269975 42015
YAMAL 401               
1 40345U 14082A   26165.42139259 -.00000221  00000+0  00000+0 0  9990
2 40345   0.0166 275.2640 0000210 306.1490 282.9753  1.00272921 41895
ASTRA 2G                
1 40364U 14089A   26165.77919479  .00000156  00000+0  00000+0 0  9992
2 40364   0.0462 348.3369 0004489  80.6440 142.8037  1.00272450 41948
FENGYUN 2G              
1 40367U 14090A   26165.71607116 -.00000301  00000+0  00000+0 0  9996
2 40367   5.6311  72.8450 0004043 154.3346  33.2905  1.00273289 41976
MUOS-3                  
1 40374U 15002A   26165.82816818 -.00000126  00000+0  00000+0 0  9996
2 40374   4.5164  43.5147 0051820 178.1419 324.1739  1.00271649 41566
INMARSAT 5-F2           
1 40384U 15005A   26165.82040887 -.00000280  00000+0  00000+0 0  9996
2 40384   0.0170 354.9122 0000675 298.4597 210.0924  1.00270132 40971
ABS-3A                  
1 40424U 15010A   26165.61683122  .00000000  00000+0  00000+0 0  9998
2 40424   0.0373  52.4733 0002129 342.4445  87.0276  1.00272172 41358
EUTELSAT 115 WEST B     
1 40425U 15010B   26165.66592608 -.00000018  00000+0  00000+0 0  9992
2 40425   0.0089 152.7893 0000364 247.4888 347.5137  1.00266575 41369
EXPRESS-AM7             
1 40505U 15012A   26165.90047703  .00000000  00000+0  00000+0 0  9991
2 40505   0.0258  10.8817 0002827  81.1059 175.3635  1.00269568 40987
BEIDOU-3S IGSO-1S       
1 40549U 15019A   26165.84191499 -.00000179  00000+0  00000+0 0  9999
2 40549  49.1999 295.4904 0039134 191.2000 171.1730  1.00250661 41052
THOR 7                  
1 40613U 15022A   26165.80669763 -.00000002  00000+0  00000+0 0  9990
2 40613   0.0428 113.4439 0002362 331.1719 108.2426  1.00271749 40797
TURKMENALEM52E/MONACOSAT
1 40617U 15023A   26165.84156059  .00000110  00000+0  00000+0 0  9997
2 40617   0.0311  69.9563 0002639   7.6475 180.5048  1.00269901 40820
DIRECTV 15              
1 40663U 15026A   26165.66835274 -.00000096  00000+0  00000+0 0  9998
2 40663   0.0165  18.4213 0000285 276.0263 106.2537  1.00269725 40430
SKY MEXICO-1            
1 40664U 15026B   26165.53052530 -.00000227  00000+0  00000+0 0  9997
2 40664   0.0172 352.9897 0001956 112.4922 269.5400  1.00270798 40427
METEOSAT-11 (MSG-4)     
1 40732U 15034A   26165.83315390  .00000068  00000+0  00000+0 0  9993
2 40732   3.1957  71.1241 0001766   9.8531 131.6818  1.00279627  7194
STAR ONE C4             
1 40733U 15034B   26165.60348448 -.00000258  00000+0  00000+0 0  9991
2 40733   0.0341  36.7487 0001985  36.7788 336.6357  1.00270342 39985
WGS F7 (USA 263)        
1 40746U 15036A   26165.65205933  .00000024  00000+0  00000+0 0  9993
2 40746   0.0025 357.9631 0000215 300.5667  14.1540  1.00271376 39845
INTELSAT 34 (IS-34)     
1 40874U 15039A   26165.46383001 -.00000278  00000+0  00000+0 0  9992
2 40874   0.0105 335.3821 0000491 359.9880  38.8912  1.00273179 39601
EUTELSAT 8 WEST B       
1 40875U 15039B   26165.82972818 -.00000060  00000+0  00000+0 0  9992
2 40875   0.0655   9.7859 0003920  70.4725 113.5704  1.00271778 39634
GSAT-6                  
1 40880U 15041A   26165.86200979 -.00000156  00000+0  00000+0 0  9993
2 40880   1.9136  82.6246 0003331 355.5333 217.8510  1.00272460 39577
INMARSAT 5-F3           
1 40882U 15042A   26165.72427022  .00000057  00000+0  00000+0 0  9990
2 40882   0.0179   7.7031 0000022 157.6263 178.0619  1.00271253 39547
MUOS-4                  
1 40887U 15044A   26165.75498513 -.00000090  00000+0  00000+0 0  9991
2 40887   4.3253  42.2298 0057808   2.0999 205.4999  1.00270690 39533
TJS-1                   
1 40892U 15046A   26165.79068206 -.00000150  00000+0  00000+0 0  9992
2 40892   0.3173  84.9293 0005461 358.3176 259.5462  1.00271023 39543
EXPRESS-AM8             
1 40895U 15048A   26165.82851486 -.00000106  00000+0  00000+0 0  9992
2 40895   0.0123 300.6756 0000484  13.5154 233.1979  1.00270626 39321
BEIDOU-3S IGSO-2S       
1 40938U 15053A   26165.82410639 -.00000131  00000+0  00000+0 0  9995
2 40938  49.2253 258.8113 0065717 192.1261 204.1557  1.00259392 39330
SKY MUSTER 1 (NBN1A)    
1 40940U 15054A   26165.85903197  .00000000  00000+0  00000+0 0  9992
2 40940   0.0252 339.9121 0001638 107.6151 265.1164  1.00270852 39232
ARSAT 2                 
1 40941U 15054B   26165.53009198 -.00000218  00000+0  00000+0 0  9998
2 40941   0.0292  50.0457 0001946  17.4864 305.1302  1.00271283 39273
MORELOS 3               
1 40946U 15056A   26165.59499110 -.00000039  00000+0  00000+0 0  9999
2 40946   3.1847  15.0060 0001209   3.3159 345.6687  1.00272722 39254
APSTAR-9                
1 40982U 15059A   26165.85937863 -.00000260  00000+0  00000+0 0  9999
2 40982   0.0284  38.3977 0002231 151.0353 165.1055  1.00272283 39091
TURKSAT 4B              
1 40984U 15060A   26165.84121394  .00000121  00000+0  00000+0 0  9991
2 40984   0.0330  72.5314 0002157 354.8471 188.5672  1.00270715 39071
ZHONGXING-2C            
1 41021U 15063A   26165.85175193 -.00000318  00000+0  00000+0 0  9993
2 41021   0.2664  90.0288 0007559  98.7871 124.4166  1.00272011 38954
